GLOBALSTAR M045         
1 25676U 99019A   25145.40045444 -.00000045  00000+0  42668-3 0  9994
2 25676  51.9993  10.2164 0000916 102.7981  68.3830 12.27062538190590
GLOBALSTAR M042         
1 25679U 99019D   25145.34622328 -.00000075  00000+0  16319-3 0  9999
2 25679  51.9993 115.4329 0002790 257.9423 253.4715 12.22083044182466
GLOBALSTAR M025         
1 25770U 99031A   25145.62187823 -.00000041  00000+0  80985-3 0  9995
2 25770  51.9795 211.5469 0001780 127.2113  26.7518 11.22558114479177
GLOBALSTAR M049         
1 25771U 99031B   25145.51897242  .00000007  00000+0  25127-2 0  9994
2 25771  51.9871 245.4097 0002164 331.3096  28.7581 11.12115274114905
GLOBALSTAR M047         
1 25772U 99031C   25145.45427555 -.00000066  00000+0  11014-3 0  9991
2 25772  51.9827 244.6972 0016716 222.1164 137.8357 11.31928191468536
GLOBALSTAR M052         
1 25773U 99031D   25145.53551661 -.00000067  00000+0 -48414-4 0  9994
2 25773  51.9896 354.3640 0003127 124.9205 246.9281 11.15059620475980
